OBJECT_NAME,OBJECT_ID,EPOCH,MEAN_MOTION,ECCENTRICITY,INCLINATION,RA_OF_ASC_NODE,ARG_OF_PERICENTER,MEAN_ANOMALY,EPHEMERIS_TYPE,CLASSIFICATION_TYPE,NORAD_CAT_ID,ELEMENT_SET_NO,REV_AT_EPOCH,BSTAR,MEAN_MOTION_DOT,MEAN_MOTION_DDOT
LEMUR-2-CELIJO-SB-PK,2025-276DW,2026-07-23T10:55:11.988768,15.00352890,.00065133,97.5182,274.0339,44.3861,315.7884,0,U,66781,999,2806,.49252832E-3,.6129E-4,0
LEMUR-2-FINNIAN,2025-276DX,2026-07-23T03:45:40.833504,15.00680472,.00069071,97.5351,274.0329,328.3462,31.7346,0,U,66782,999,2539,.43099557E-3,.5402E-4,0
LEMUR-2-STARLIGHT,2025-276DY,2026-07-23T11:27:50.746752,14.99432550,.00144252,97.5245,273.8780,21.9305,338.2533,0,U,66783,999,3563,.52362629E-3,.6375E-4,0
LEMUR-2-TARTIFLETTE,2025-276DZ,2026-07-23T03:25:11.820288,14.99409339,.00137297,97.5241,273.5617,32.0065,328.1990,0,U,66784,999,3558,.51868028E-3,.6309E-4,0
LEMUR-2-VUKASIN,2025-276EA,2026-07-23T10:33:29.679840,15.00603730,.00017816,97.5197,274.2199,22.0163,338.1138,0,U,66785,999,3558,.43451493E-3,.5433E-4,0
LEMUR-2-HOTSPUR-TOM,2025-276EB,2026-07-23T03:17:54.832416,14.99305596,.00134557,97.5217,273.5281,23.8988,336.2857,0,U,66786,999,3551,.53078591E-3,.6439E-4,0
LEMUR-2-MYRA,2025-276EC,2026-07-23T03:18:56.193696,15.00655988,.00184599,97.5228,273.8495,29.8071,330.4201,0,U,66787,999,3560,.50413363E-3,.6344E-4,0
LEMUR-2 FIKRETDENGIZ,2026-004A,2026-07-23T05:37:25.908096,14.88560956,.00095988,97.8036,202.2466,32.4337,327.7468,0,U,67363,999,2864,.40440968E-3,.3712E-4,0
TWILIGHT-1 OBJECT B,2026-004B,2026-07-20T23:43:51.115584,14.87805943,.00093149,97.8078,200.0319,28.9865,331.1867,0,U,67364,999,2831,.12739587E-3,.111E-4,0
LEMUR-2-MARIO-SOUSA,2026-004C,2026-07-23T09:57:08.147232,14.88777544,.0009196,97.8008,202.4188,33.8780,326.3023,0,U,67365,999,2868,.49584016E-3,.4588E-4,0
LEMUR-2-SONNENBLUME,2026-004E,2026-07-22T22:45:51.887808,14.88482895,.00089045,97.8005,201.9290,35.7911,324.3902,0,U,67367,999,2861,.26574293E-3,.2415E-4,0
LEMUR-2-WOBLER,2026-004F,2026-07-23T09:46:04.427616,14.88741264,.00088112,97.8058,202.5398,26.3810,333.7854,0,U,67368,999,2868,.44153334E-3,.4076E-4,0
LEMUR-2-GRAM-E-SUE,2026-004H,2026-07-23T11:12:26.903520,14.88618341,.00080857,97.7995,202.4565,37.9278,322.2507,0,U,67370,999,2869,.24026858E-3,.2185E-4,0
LEMUR-2-KATIE,2026-004AA,2026-07-22T22:40:20.649216,14.90299200,.00027726,97.8053,202.5193,14.1370,345.9925,0,U,67387,999,2863,.5090192E-3,.4891E-4,0
LEMUR-2-HCS-BAZUS,2026-004AB,2026-07-23T11:31:23.295936,14.90305691,.00022136,97.8041,203.0256,14.5071,345.6210,0,U,67388,999,2871,.40341329E-3,.3865E-4,0
